{"type": "FeatureCollection", "features": [ {"type": "Feature", "properties": {"norad_id": 66529, "name": "STARLINK-35933", "group": "last-30-days", "lat": -28.43122772421966, "lon": -36.66787030944265, "alt_km": 346.43588712235396, "timestamp": "2025-12-03T15:48:01.919899+00:00", "meta": {"OBJECT_NAME": "STARLINK-35933", "OBJECT_ID": "2025-265P", "EPOCH": "2025-12-03T06:00:02.999808", "MEAN_MOTION": 15.74936659, "ECCENTRICITY": 0.00018841, "INCLINATION": 42.9997, "RA_OF_ASC_NODE": 110.2879, "ARG_OF_PERICENTER": 275.4707, "MEAN_ANOMALY": 150.7998, "EPHEMERIS_TYPE": 0, "CLASSIFICATION_TYPE": "U", "NORAD_CAT_ID": 66529, "ELEMENT_SET_NO": 999, "REV_AT_EPOCH": 347, "BSTAR": 0.00064549576, "MEAN_MOTION_DOT": 0.00099407, "MEAN_MOTION_DDOT": 0}, "tle": {"line1": "1 66529U 25265P   25337.25003472  .00099407  00000+0  64550-3 0  9992", "line2": "2 66529  42.9997 110.2879 0001884 275.4707 150.7998 15.74936659  3479"}}, "geometry": {"type": "Point", "coordinates": [-36.66787030944265, -28.43122772421966]}}, {"type": "Feature", "properties": {"norad_id": 66530, "name": "STARLINK-35961", "group": "last-30-days", "lat": -29.475561430397082, "lon": -34.852905099163564, "alt_km": 346.3134664185327, "timestamp": "2025-12-03T15:48:01.919908+00:00", "meta": {"OBJECT_NAME": "STARLINK-35961", "OBJECT_ID": "2025-265Q", "EPOCH": "2025-12-03T06:00:02.999808", "MEAN_MOTION": 15.75045803, "ECCENTRICITY": 0.00017165, "INCLINATION": 42.9997, "RA_OF_ASC_NODE": 110.2836, "ARG_OF_PERICENTER": 265.5083, "MEAN_ANOMALY": 162.5648, "EPHEMERIS_TYPE": 0, "CLASSIFICATION_TYPE": "U", "NORAD_CAT_ID": 66530, "ELEMENT_SET_NO": 999, "REV_AT_EPOCH": 347, "BSTAR": -2.436956e-05, "MEAN_MOTION_DOT": -4.22e-05, "MEAN_MOTION_DDOT": 0}, "tle": {"line1": "1 66530U 25265Q   25337.25003472 -.00004220  00000+0 -24370-4 0  9992", "line2": "2 66530  42.9997 110.2836 0001716 265.5083 162.5648 15.75045803  3471"}}, "geometry": {"type": "Point", "coordinates": [-34.852905099163564, -29.475561430397082]}}, {"type": "Feature", "properties": {"norad_id": 66531, "name": "STARLINK-35960", "group": "last-30-days", "lat": -30.503078887162637, "lon": -32.98549334263079, "alt_km": 346.22059475496644, "timestamp": "2025-12-03T15:48:01.919917+00:00", "meta": {"OBJECT_NAME": "STARLINK-35960", "OBJECT_ID": "2025-265R", "EPOCH": "2025-12-03T06:00:02.999808", "MEAN_MOTION": 15.75033302, "ECCENTRICITY": 0.00016944, "INCLINATION": 42.9998, "RA_OF_ASC_NODE": 110.2785, "ARG_OF_PERICENTER": 257.1118, "MEAN_ANOMALY": 172.8766, "EPHEMERIS_TYPE": 0, "CLASSIFICATION_TYPE": "U", "NORAD_CAT_ID": 66531, "ELEMENT_SET_NO": 999, "REV_AT_EPOCH": 347, "BSTAR": 0.00021622261, "MEAN_MOTION_DOT": 0.00032857, "MEAN_MOTION_DDOT": 0}, "tle": {"line1": "1 66531U 25265R   25337.25003472  .00032857  00000+0  21622-3 0  9994", "line2": "2 66531  42.9998 110.2785 0001694 257.1118 172.8766 15.75033302  3473"}}, "geometry": {"type": "Point", "coordinates": [-32.98549334263079, -30.503078887162637]}}, {"type": "Feature", "properties": {"norad_id": 66532, "name": "STARLINK-35914", "group": "last-30-days", "lat": -31.50172269937212, "lon": -31.080385986055337, "alt_km": 346.2290720579076, "timestamp": "2025-12-03T15:48:01.919926+00:00", "meta": {"OBJECT_NAME": "STARLINK-35914", "OBJECT_ID": "2025-265S", "EPOCH": "2025-12-03T06:00:02.999808", "MEAN_MOTION": 15.75041077, "ECCENTRICITY": 0.00018102, "INCLINATION": 42.9995, "RA_OF_ASC_NODE": 110.274, "ARG_OF_PERICENTER": 259.4482, "MEAN_ANOMALY": 172.4575, "EPHEMERIS_TYPE": 0, "CLASSIFICATION_TYPE": "U", "NORAD_CAT_ID": 66532, "ELEMENT_SET_NO": 999, "REV_AT_EPOCH": 347, "BSTAR": 0.00012535875, "MEAN_MOTION_DOT": 0.00018823, "MEAN_MOTION_DDOT": 0}, "tle": {"line1": "1 66532U 25265S   25337.25003472  .00018823  00000+0  12536-3 0  9996", "line2": "2 66532  42.9995 110.2740 0001810 259.4482 172.4575 15.75041077  3473"}}, "geometry": {"type": "Point", "coordinates": [-31.080385986055337, -31.50172269937212]}}, {"type": "Feature", "properties": {"norad_id": 66533, "name": "STARLINK-35707", "group": "last-30-days", "lat": -32.46495696354628, "lon": -29.14883675120308, "alt_km": 346.52661303033165, "timestamp": "2025-12-03T15:48:01.919935+00:00", "meta": {"OBJECT_NAME": "STARLINK-35707", "OBJECT_ID": "2025-265T", "EPOCH": "2025-12-03T06:00:02.999808", "MEAN_MOTION": 15.75051017, "ECCENTRICITY": 0.00016735, "INCLINATION": 42.9996, "RA_OF_ASC_NODE": 110.2693, "ARG_OF_PERICENTER": 270.7205, "MEAN_ANOMALY": 163.1002, "EPHEMERIS_TYPE": 0, "CLASSIFICATION_TYPE": "U", "NORAD_CAT_ID": 66533, "ELEMENT_SET_NO": 999, "REV_AT_EPOCH": 347, "BSTAR": -0.00011065025, "MEAN_MOTION_DOT": -0.00017448, "MEAN_MOTION_DDOT": 0}, "tle": {"line1": "1 66533U 25265T   25337.25003472 -.00017448  00000+0 -11065-3 0  9997", "line2": "2 66533  42.9996 110.2693 0001673 270.7205 163.1002 15.75051017  3475"}}, "geometry": {"type": "Point", "coordinates": [-29.14883675120308, -32.46495696354628]}}, {"type": "Feature", "properties": {"norad_id": 66534, "name": "STARLINK-35976", "group": "last-30-days", "lat": -33.41275960090714, "lon": -27.143994611864407, "alt_km": 346.1661828848446, "timestamp": "2025-12-03T15:48:01.919946+00:00", "meta": {"OBJECT_NAME": "STARLINK-35976", "OBJECT_ID": "2025-265U", "EPOCH": "2025-12-03T06:00:02.999808", "MEAN_MOTION": 15.75041277, "ECCENTRICITY": 0.00018671, "INCLINATION": 42.9999, "RA_OF_ASC_NODE": 110.2648, "ARG_OF_PERICENTER": 248.26, "MEAN_ANOMALY": 187.4825, "EPHEMERIS_TYPE": 0, "CLASSIFICATION_TYPE": "U", "NORAD_CAT_ID": 66534, "ELEMENT_SET_NO": 999, "REV_AT_EPOCH": 347, "BSTAR": 0.00013856686, "MEAN_MOTION_DOT": 0.00020862, "MEAN_MOTION_DDOT": 0}, "tle": {"line1": "1 66534U 25265U   25337.25003472  .00020862  00000+0  13857-3 0  9991", "line2": "2 66534  42.9999 110.2648 0001867 248.2600 187.4825 15.75041277  3472"}}, "geometry": {"type": "Point", "coordinates": [-27.143994611864407, -33.41275960090714]}}, {"type": "Feature", "properties": {"norad_id": 66535, "name": "STARLINK-35514", "group": "last-30-days", "lat": -34.30890586639029, "lon": -25.138558844665123, "alt_km": 346.5595488023482, "timestamp": "2025-12-03T15:48:01.919955+00:00", "meta": {"OBJECT_NAME": "STARLINK-35514", "OBJECT_ID": "2025-265V", "EPOCH": "2025-12-03T06:00:02.999808", "MEAN_MOTION": 15.75055758, "ECCENTRICITY": 0.00017412, "INCLINATION": 43, "RA_OF_ASC_NODE": 110.2598, "ARG_OF_PERICENTER": 270.3081, "MEAN_ANOMALY": 167.3475, "EPHEMERIS_TYPE": 0, "CLASSIFICATION_TYPE": "U", "NORAD_CAT_ID": 66535, "ELEMENT_SET_NO": 999, "REV_AT_EPOCH": 347, "BSTAR": -0.00020321394, "MEAN_MOTION_DOT": -0.000316, "MEAN_MOTION_DDOT": 0}, "tle": {"line1": "1 66535U 25265V   25337.25003472 -.00031600  00000+0 -20321-3 0  9990", "line2": "2 66535  43.0000 110.2598 0001741 270.3081 167.3475 15.75055758  3479"}}, "geometry": {"type": "Point", "coordinates": [-25.138558844665123, -34.30890586639029]}}, {"type": "Feature", "properties": {"norad_id": 66536, "name": "STARLINK-35640", "group": "last-30-days", "lat": -35.179859969871664, "lon": -23.068837782154084, "alt_km": 346.6305782452109, "timestamp": "2025-12-03T15:48:01.919964+00:00", "meta": {"OBJECT_NAME": "STARLINK-35640", "OBJECT_ID": "2025-265W", "EPOCH": "2025-12-03T06:00:02.999808", "MEAN_MOTION": 15.75074879, "ECCENTRICITY": 0.00016803, "INCLINATION": 42.9998, "RA_OF_ASC_NODE": 110.2554, "ARG_OF_PERICENTER": 269.0175, "MEAN_ANOMALY": 170.5476, "EPHEMERIS_TYPE": 0, "CLASSIFICATION_TYPE": "U", "NORAD_CAT_ID": 66536, "ELEMENT_SET_NO": 999, "REV_AT_EPOCH": 345, "BSTAR": -0.00044764895, "MEAN_MOTION_DOT": -0.00068791, "MEAN_MOTION_DDOT": 0}, "tle": {"line1": "1 66536U 25265W   25337.25003472 -.00068791  00000+0 -44765-3 0  9990", "line2": "2 66536  42.9998 110.2554 0001680 269.0175 170.5476 15.75074879  3457"}}, "geometry": {"type": "Point", "coordinates": [-23.068837782154084, -35.179859969871664]}}, {"type": "Feature", "properties": {"norad_id": 66537, "name": "STARLINK-35582", "group": "last-30-days", "lat": -36.01802676872443, "lon": -20.948084779761977, "alt_km": 346.634450948658, "timestamp": "2025-12-03T15:48:01.919972+00:00", "meta": {"OBJECT_NAME": "STARLINK-35582", "OBJECT_ID": "2025-265X", "EPOCH": "2025-12-03T06:00:02.999808", "MEAN_MOTION": 15.75082047, "ECCENTRICITY": 0.00016715, "INCLINATION": 43, "RA_OF_ASC_NODE": 110.2503, "ARG_OF_PERICENTER": 267.8641, "MEAN_ANOMALY": 173.6154, "EPHEMERIS_TYPE": 0, "CLASSIFICATION_TYPE": "U", "NORAD_CAT_ID": 66537, "ELEMENT_SET_NO": 999, "REV_AT_EPOCH": 347, "BSTAR": -0.00047228599, "MEAN_MOTION_DOT": -0.00072541, "MEAN_MOTION_DDOT": 0}, "tle": {"line1": "1 66537U 25265X   25337.25003472 -.00072541  00000+0 -47229-3 0  9997", "line2": "2 66537  43.0000 110.2503 0001671 267.8641 173.6154 15.75082047  3477"}}, "geometry": {"type": "Point", "coordinates": [-20.948084779761977, -36.01802676872443]}}, {"type": "Feature", "properties": {"norad_id": 66538, "name": "STARLINK-35577", "group": "last-30-days", "lat": -36.81413344625615, "lon": -18.79258556095732, "alt_km": 346.63490882911447, "timestamp": "2025-12-03T15:48:01.919981+00:00", "meta": {"OBJECT_NAME": "STARLINK-35577", "OBJECT_ID": "2025-265Y", "EPOCH": "2025-12-03T06:00:02.999808", "MEAN_MOTION": 15.75064523, "ECCENTRICITY": 0.00016859, "INCLINATION": 43, "RA_OF_ASC_NODE": 110.2453, "ARG_OF_PERICENTER": 268.3359, "MEAN_ANOMALY": 175.0656, "EPHEMERIS_TYPE": 0, "CLASSIFICATION_TYPE": "U", "NORAD_CAT_ID": 66538, "ELEMENT_SET_NO": 999, "REV_AT_EPOCH": 347, "BSTAR": -0.00027472488, "MEAN_MOTION_DOT": -0.00042513, "MEAN_MOTION_DDOT": 0}, "tle": {"line1": "1 66538U 25265Y   25337.25003472 -.00042513  00000+0 -27472-3 0  9992", "line2": "2 66538  43.0000 110.2453 0001685 268.3359 175.0656 15.75064523  3471"}}, "geometry": {"type": "Point", "coordinates": [-18.79258556095732, -36.81413344625615]}}]}